OBJECT_NAME,OBJECT_ID,EPOCH,MEAN_MOTION,ECCENTRICITY,INCLINATION,RA_OF_ASC_NODE,ARG_OF_PERICENTER,MEAN_ANOMALY,EPHEMERIS_TYPE,CLASSIFICATION_TYPE,NORAD_CAT_ID,ELEMENT_SET_NO,REV_AT_EPOCH,BSTAR,MEAN_MOTION_DOT,MEAN_MOTION_DDOT
STARLINK-32105,2024-086H,2024-06-01T14:00:01.000224,15.40690998,0.0001141,43.0002,143.2365,273.3119,324.9041,0,U,59689,999,482,-0.00010424,-4.654e-05,0
STARLINK-32106,2024-086J,2024-06-01T08:37:32.768256,15.40709311,3.92e-05,43.0002,144.7094,274.5306,85.5505,0,U,59690,999,486,0.00014743,5.862e-05,0
STARLINK-32090,2024-086K,2024-06-01T14:00:01.000224,15.4071958,0.0001579,43.0001,143.0257,265.3791,59.9309,0,U,59691,999,471,-0.00072835,-0.00030626,0
STARLINK-32095,2024-086L,2024-06-01T08:54:34.039584,15.62423098,0.0002208,42.9994,143.0443,171.6179,188.4722,0,U,59692,999,488,0.0010028,0.00092147,0
STARLINK-32088,2024-086M,2024-06-01T08:31:05.919168,15.40720847,0.0001478,42.9999,144.6735,262.1024,97.9664,0,U,59693,999,486,0.00063815,0.00026464,0
STARLINK-32107,2024-086N,2024-06-01T06:00:16.284672,15.49903572,0.0001004,43.0014,144.7365,198.2831,161.7992,0,U,59694,999,485,-0.0061899,-0.0033986,0
STARLINK-32104,2024-086P,2024-06-01T08:21:26.345376,15.40726593,0.0001642,43.0003,144.6205,303.5446,56.5254,0,U,59695,999,486,0.0011993,0.00050169,0
STARLINK-32094,2024-086Q,2024-06-01T14:00:01.000224,15.40679033,0.0001274,43.0008,142.687,290.7868,171.3425,0,U,59696,999,461,0.00024861,0.00010088,0
STARLINK-32099,2024-086R,2024-06-01T08:14:59.805600,15.40664969,6.88e-05,43.0007,144.5846,315.2179,44.8622,0,U,59697,999,486,-0.00010033,-4.486e-05,0
STARLINK-32096,2024-086S,2024-06-01T14:00:01.000224,15.40695201,0.0002037,43.0001,142.9334,286.8382,75.8066,0,U,59698,999,482,0.00016526,6.605e-05,0
STARLINK-32102,2024-086T,2024-06-01T14:00:01.000224,15.40665215,1.98e-05,42.9999,143.1136,112.6959,175.2538,0,U,59699,999,466,0.0011041,0.00046042,0
STARLINK-32092,2024-086U,2024-06-01T14:00:01.000224,15.40646029,0.0001764,43.0002,142.8422,266.7868,133.1867,0,U,59700,999,482,0.0019215,0.00080671,0
STARLINK-32093,2024-086V,2024-06-01T06:06:10.117728,15.41586312,0.0001361,43.0005,144.7681,242.8226,117.2492,0,U,59701,999,485,-0.0083255,-0.00342908,0
STARLINK-32087,2024-086W,2024-06-01T14:00:01.000224,15.40698139,0.0001083,43,142.9937,320.0311,17.7389,0,U,59702,999,473,0.00012931,5.101e-05,0
STARLINK-32086,2024-086X,2024-06-01T09:57:59.606208,15.40725111,0.0001434,42.9998,144.2641,274.1192,85.9501,0,U,59703,999,487,0.00043793,0.00018048,0
STARLINK-32098,2024-086Y,2024-06-01T14:00:01.000224,15.41681892,0.0001446,43.0003,142.8135,263.475,148.3604,0,U,59704,999,476,-0.033241,-0.01294275,0
SKYNET-1 01,2024-087A,2024-05-31T13:27:44.515296,2.00592205,0.0004909,53.142,201.343,221.3128,353.3015,0,U,59705,999,33,0,5.8e-07,0
CZ-3B R/B,2024-087C,2024-06-01T13:18:31.026528,3.97767826,0.6091059,53.2019,191.0181,233.2192,54.2538,0,U,59707,999,101,0.0010038,0.00030389,1.479e-07
STARLINK-11107 [DTC],2024-088A,2024-06-01T13:45:46.168128,15.83497787,0.000205,53.1636,272.7916,21.6572,338.4538,0,U,59708,999,475,-0.00040621,-0.0009045,0
STARLINK-11088 [DTC],2024-088B,2024-06-01T14:14:11.844096,15.76717913,6.38e-05,53.1639,272.9213,57.3949,302.7133,0,U,59709,999,477,1.3741e-05,1.595e-05,0
STARLINK-11092 [DTC],2024-088C,2024-06-01T14:11:14.540928,15.76747855,0.0001312,53.1633,272.9079,70.4457,289.6706,0,U,59710,999,477,0.0002991,0.00048619,0
STARLINK-11082 [DTC],2024-088D,2024-06-01T14:08:16.420416,15.76711578,9.48e-05,53.1635,272.8952,58.416,301.6953,0,U,59711,999,477,-2.1858e-05,-4.226e-05,0
STARLINK-11108 [DTC],2024-088E,2024-06-01T14:05:19.175136,15.76735112,0.0002372,53.1634,272.8787,0.8138,359.2886,0,U,59712,999,477,9.2807e-05,0.00014564,0
STARLINK-11100 [DTC],2024-088F,2024-06-01T14:00:01.000224,15.76739217,0.0001229,53.1628,272.8753,84.0359,266.9125,0,U,59713,999,468,-0.00026685,-0.00044122,0
STARLINK-11094 [DTC],2024-088G,2024-06-01T13:59:20.250528,15.76762907,0.0002279,53.1636,272.8517,119.8394,240.2854,0,U,59714,999,477,7.8861e-05,0.00012289,0
STARLINK-11101 [DTC],2024-088H,2024-06-01T14:00:01.000224,15.76755665,9.02e-05,53.1618,272.8017,101.2605,284.9624,0,U,59715,999,467,-0.00042546,-0.00069798,0
STARLINK-11099 [DTC],2024-088J,2024-06-01T13:56:22.984512,15.76684499,0.0001311,53.1628,272.8356,79.7352,280.3817,0,U,59716,999,477,-0.00010214,-0.00017304,0
STARLINK-11084 [DTC],2024-088K,2024-06-01T12:19:07.808448,15.76736176,0.0001139,53.1624,273.1247,80.4888,279.6261,0,U,59717,999,464,5.946e-05,9.091e-05,0
STARLINK-11103 [DTC],2024-088L,2024-06-01T14:00:01.000224,15.76752085,8.61e-05,53.1614,272.7526,83.6121,326.1761,0,U,59718,999,467,-0.00033984,-0.00055964,0
STARLINK-11096 [DTC],2024-088M,2024-06-01T14:00:01.000224,15.76750387,0.0001183,53.1609,272.7284,143.0887,278.4768,0,U,59719,999,467,-0.00038185,-0.0006275,0
