STARLINK-32105          
1 59689U 24086H   24153.58334491 -.00004654  00000+0 -10424-3 0  9993
2 59689  43.0002 143.2365 0001141 273.3119 324.9041 15.40690998  4823
STARLINK-32106          
1 59690U 24086J   24153.35940704  .00005862  00000+0  14743-3 0  9998
2 59690  43.0002 144.7094 0000392 274.5306  85.5505 15.40709311  4867
STARLINK-32090          
1 59691U 24086K   24153.58334491 -.00030626  00000+0 -72835-3 0  9998
2 59691  43.0001 143.0257 0001579 265.3791  59.9309 15.40719580  4714
STARLINK-32095          
1 59692U 24086L   24153.37122731  .00092147  00000+0  10028-2 0  9997
2 59692  42.9994 143.0443 0002208 171.6179 188.4722 15.62423098  4885
STARLINK-32088          
1 59693U 24086M   24153.35492962  .00026464  00000+0  63815-3 0  9994
2 59693  42.9999 144.6735 0001478 262.1024  97.9664 15.40720847  4860
STARLINK-32107          
1 59694U 24086N   24153.25018848 -.00339860  00000+0 -61899-2 0  9999
2 59694  43.0014 144.7365 0001004 198.2831 161.7992 15.49903572  4851
STARLINK-32104          
1 59695U 24086P   24153.34822159  .00050169  00000+0  11993-2 0  9998
2 59695  43.0003 144.6205 0001642 303.5446  56.5254 15.40726593  4863
STARLINK-32094          
1 59696U 24086Q   24153.58334491  .00010088  00000+0  24861-3 0  9997
2 59696  43.0008 142.6870 0001274 290.7868 171.3425 15.40679033  4616
STARLINK-32099          
1 59697U 24086R   24153.34374775 -.00004486  00000+0 -10033-3 0  9994
2 59697  43.0007 144.5846 0000688 315.2179  44.8622 15.40664969  4868
STARLINK-32096          
1 59698U 24086S   24153.58334491  .00006605  00000+0  16526-3 0  9998
2 59698  43.0001 142.9334 0002037 286.8382  75.8066 15.40695201  4821
STARLINK-32102          
1 59699U 24086T   24153.58334491  .00046042  00000+0  11041-2 0  9994
2 59699  42.9999 143.1136 0000198 112.6959 175.2538 15.40665215  4664
STARLINK-32092          
1 59700U 24086U   24153.58334491  .00080671  00000+0  19215-2 0  9994
2 59700  43.0002 142.8422 0001764 266.7868 133.1867 15.40646029  4826
STARLINK-32093          
1 59701U 24086V   24153.25428377 -.00342908  00000+0 -83255-2 0  9997
2 59701  43.0005 144.7681 0001361 242.8226 117.2492 15.41586312  4853
STARLINK-32087          
1 59702U 24086W   24153.58334491  .00005101  00000+0  12931-3 0  9990
2 59702  43.0000 142.9937 0001083 320.0311  17.7389 15.40698139  4734
STARLINK-32086          
1 59703U 24086X   24153.41527322  .00018048  00000+0  43793-3 0  9994
2 59703  42.9998 144.2641 0001434 274.1192  85.9501 15.40725111  4871
STARLINK-32098          
1 59704U 24086Y   24153.58334491 -.01294275  00000+0 -33241-1 0  9992
2 59704  43.0003 142.8135 0001446 263.4750 148.3604 15.41681892  4761
SKYNET-1 01             
1 59705U 24087A   24152.56093189  .00000058  00000+0  00000+0 0  9993
2 59705  53.1420 201.3430 0004909 221.3128 353.3015  2.00592205   338
STARLINK-11107 [DTC]    
1 59708U 24088A   24153.57345102 -.00090450  00000+0 -40621-3 0  9998
2 59708  53.1636 272.7916 0002050  21.6572 338.4538 15.83497787  4758
STARLINK-11088 [DTC]    
1 59709U 24088B   24153.59319264  .00001595  00000+0  13741-4 0  9995
2 59709  53.1639 272.9213 0000638  57.3949 302.7133 15.76717913  4773
STARLINK-11092 [DTC]    
1 59710U 24088C   24153.59114052  .00048619  00000+0  29910-3 0  9997
2 59710  53.1633 272.9079 0001312  70.4457 289.6706 15.76747855  4776
STARLINK-11082 [DTC]    
1 59711U 24088D   24153.58907894 -.00004226  00000+0 -21858-4 0  9993
2 59711  53.1635 272.8952 0000948  58.4160 301.6953 15.76711578  4771
STARLINK-11108 [DTC]    
1 59712U 24088E   24153.58702749  .00014564  00000+0  92807-4 0  9992
2 59712  53.1634 272.8787 0002372   0.8138 359.2886 15.76735112  4770
STARLINK-11100 [DTC]    
1 59713U 24088F   24153.58334491 -.00044122  00000+0 -26685-3 0  9993
2 59713  53.1628 272.8753 0001229  84.0359 266.9125 15.76739217  4686
STARLINK-11094 [DTC]    
1 59714U 24088G   24153.58287327  .00012289  00000+0  78861-4 0  9990
2 59714  53.1636 272.8517 0002279 119.8394 240.2854 15.76762907  4772
STARLINK-11101 [DTC]    
1 59715U 24088H   24153.58334491 -.00069798  00000+0 -42546-3 0  9995
2 59715  53.1618 272.8017 0000902 101.2605 284.9624 15.76755665  4671
STARLINK-11099 [DTC]    
1 59716U 24088J   24153.58082158 -.00017304  00000+0 -10214-3 0  9999
2 59716  53.1628 272.8356 0001311  79.7352 280.3817 15.76684499  4773
STARLINK-11084 [DTC]    
1 59717U 24088K   24153.51328482  .00009091  00000+0  59460-4 0  9995
2 59717  53.1624 273.1247 0001139  80.4888 279.6261 15.76736176  4644
STARLINK-11103 [DTC]    
1 59718U 24088L   24153.58334491 -.00055964  00000+0 -33984-3 0  9994
2 59718  53.1614 272.7526 0000861  83.6121 326.1761 15.76752085  4678
STARLINK-11096 [DTC]    
1 59719U 24088M   24153.58334491 -.00062750  00000+0 -38185-3 0  9994
2 59719  53.1609 272.7284 0001183 143.0887 278.4768 15.76750387  4671
CZ-3B R/B               
1 59707U 24087C   24153.55452577  .00030389  14790-6  10038-2 0  9998
2 59707  53.2019 191.0181 6091059 233.2192  54.2538  3.97767826  1017
